CCSDS_OMM_VERS = 2.0
CREATION_DATE  = 
ORIGINATOR     = 

OBJECT_NAME    = STARLINK-36274
OBJECT_ID      = 2026-054V
CENTER_NAME    = EARTH
REF_FRAME      = TEME
TIME_SYSTEM    = UTC
MEAN_ELEMENT_THEORY = SGP/SGP4

EPOCH          = 2026-04-05T12:13:09.778944
MEAN_MOTION    = 15.75338858
ECCENTRICITY   = .0001109
INCLINATION    = 53.1583
RA_OF_ASC_NODE = 178.4059
ARG_OF_PERICENTER = 132.0094
MEAN_ANOMALY   = 228.1021

EPHEMERIS_TYPE = 0
CLASSIFICATION_TYPE = U
NORAD_CAT_ID   = 68251
ELEMENT_SET_NO = 999
REV_AT_EPOCH   = 301
BSTAR          = .11439E-2
MEAN_MOTION_DOT = .179244E-2
MEAN_MOTION_DDOT = 0

CCSDS_OMM_VERS = 2.0
CREATION_DATE  = 
ORIGINATOR     = 

OBJECT_NAME    = STARLINK-37085
OBJECT_ID      = 2026-054W
CENTER_NAME    = EARTH
REF_FRAME      = TEME
TIME_SYSTEM    = UTC
MEAN_ELEMENT_THEORY = SGP/SGP4

EPOCH          = 2026-04-05T11:34:22.278720
MEAN_MOTION    = 15.81019859
ECCENTRICITY   = .0000955
INCLINATION    = 53.1587
RA_OF_ASC_NODE = 178.2259
ARG_OF_PERICENTER = 78.5734
MEAN_ANOMALY   = 281.5396

EPHEMERIS_TYPE = 0
CLASSIFICATION_TYPE = U
NORAD_CAT_ID   = 68252
ELEMENT_SET_NO = 999
REV_AT_EPOCH   = 301
BSTAR          = .1207E-2
MEAN_MOTION_DOT = .246107E-2
MEAN_MOTION_DDOT = 0

CCSDS_OMM_VERS = 2.0
CREATION_DATE  = 
ORIGINATOR     = 

OBJECT_NAME    = STARLINK-37086
OBJECT_ID      = 2026-054X
CENTER_NAME    = EARTH
REF_FRAME      = TEME
TIME_SYSTEM    = UTC
MEAN_ELEMENT_THEORY = SGP/SGP4

EPOCH          = 2026-04-05T11:33:17.646336
MEAN_MOTION    = 15.81014709
ECCENTRICITY   = .0000904
INCLINATION    = 53.1587
RA_OF_ASC_NODE = 178.2216
ARG_OF_PERICENTER = 107.4447
MEAN_ANOMALY   = 252.6674

EPHEMERIS_TYPE = 0
CLASSIFICATION_TYPE = U
NORAD_CAT_ID   = 68253
ELEMENT_SET_NO = 999
REV_AT_EPOCH   = 301
BSTAR          = .112E-2
MEAN_MOTION_DOT = .227772E-2
MEAN_MOTION_DDOT = 0

CCSDS_OMM_VERS = 2.0
CREATION_DATE  = 
ORIGINATOR     = 

OBJECT_NAME    = STARLINK-37084
OBJECT_ID      = 2026-054Y
CENTER_NAME    = EARTH
REF_FRAME      = TEME
TIME_SYSTEM    = UTC
MEAN_ELEMENT_THEORY = SGP/SGP4

EPOCH          = 2026-04-05T11:31:07.978080
MEAN_MOTION    = 15.81016328
ECCENTRICITY   = .000227
INCLINATION    = 53.1587
RA_OF_ASC_NODE = 178.2114
ARG_OF_PERICENTER = 34.9313
MEAN_ANOMALY   = 325.1858

EPHEMERIS_TYPE = 0
CLASSIFICATION_TYPE = U
NORAD_CAT_ID   = 68254
ELEMENT_SET_NO = 999
REV_AT_EPOCH   = 301
BSTAR          = .11971E-2
MEAN_MOTION_DOT = .243989E-2
MEAN_MOTION_DDOT = 0

CCSDS_OMM_VERS = 2.0
CREATION_DATE  = 
ORIGINATOR     = 

OBJECT_NAME    = STARLINK-37075
OBJECT_ID      = 2026-054Z
CENTER_NAME    = EARTH
REF_FRAME      = TEME
TIME_SYSTEM    = UTC
MEAN_ELEMENT_THEORY = SGP/SGP4

EPOCH          = 2026-04-05T11:32:12.402240
MEAN_MOTION    = 15.80985245
ECCENTRICITY   = .0001184
INCLINATION    = 53.1586
RA_OF_ASC_NODE = 178.2162
ARG_OF_PERICENTER = 77.2595
MEAN_ANOMALY   = 282.8560

EPHEMERIS_TYPE = 0
CLASSIFICATION_TYPE = U
NORAD_CAT_ID   = 68255
ELEMENT_SET_NO = 999
REV_AT_EPOCH   = 301
BSTAR          = .13781E-2
MEAN_MOTION_DOT = .281815E-2
MEAN_MOTION_DDOT = 0

CCSDS_OMM_VERS = 2.0
CREATION_DATE  = 
ORIGINATOR     = 

OBJECT_NAME    = STARLINK-36333
OBJECT_ID      = 2026-054AA
CENTER_NAME    = EARTH
REF_FRAME      = TEME
TIME_SYSTEM    = UTC
MEAN_ELEMENT_THEORY = SGP/SGP4

EPOCH          = 2026-04-05T11:30:03.301632
MEAN_MOTION    = 15.80989970
ECCENTRICITY   = .0001392
INCLINATION    = 53.1585
RA_OF_ASC_NODE = 178.2065
ARG_OF_PERICENTER = 38.2073
MEAN_ANOMALY   = 321.9048

EPHEMERIS_TYPE = 0
CLASSIFICATION_TYPE = U
NORAD_CAT_ID   = 68256
ELEMENT_SET_NO = 999
REV_AT_EPOCH   = 301
BSTAR          = .1104E-2
MEAN_MOTION_DOT = .224158E-2
MEAN_MOTION_DDOT = 0

CCSDS_OMM_VERS = 2.0
CREATION_DATE  = 
ORIGINATOR     = 

OBJECT_NAME    = STARLINK-36745
OBJECT_ID      = 2026-054AB
CENTER_NAME    = EARTH
REF_FRAME      = TEME
TIME_SYSTEM    = UTC
MEAN_ELEMENT_THEORY = SGP/SGP4

EPOCH          = 2026-04-05T12:00:05.655744
MEAN_MOTION    = 15.75337158
ECCENTRICITY   = .0001783
INCLINATION    = 53.1580
RA_OF_ASC_NODE = 178.3444
ARG_OF_PERICENTER = 41.3573
MEAN_ANOMALY   = 318.7582

EPHEMERIS_TYPE = 0
CLASSIFICATION_TYPE = U
NORAD_CAT_ID   = 68257
ELEMENT_SET_NO = 999
REV_AT_EPOCH   = 301
BSTAR          = .11101E-2
MEAN_MOTION_DOT = .173815E-2
MEAN_MOTION_DDOT = 0

CCSDS_OMM_VERS = 2.0
CREATION_DATE  = 
ORIGINATOR     = 

OBJECT_NAME    = STARLINK-36890
OBJECT_ID      = 2026-054AC
CENTER_NAME    = EARTH
REF_FRAME      = TEME
TIME_SYSTEM    = UTC
MEAN_ELEMENT_THEORY = SGP/SGP4

EPOCH          = 2026-04-05T11:26:48.607872
MEAN_MOTION    = 15.81043353
ECCENTRICITY   = .0001165
INCLINATION    = 53.1583
RA_OF_ASC_NODE = 178.1907
ARG_OF_PERICENTER = 48.6437
MEAN_ANOMALY   = 311.4686

EPHEMERIS_TYPE = 0
CLASSIFICATION_TYPE = U
NORAD_CAT_ID   = 68258
ELEMENT_SET_NO = 999
REV_AT_EPOCH   = 301
BSTAR          = .15739E-2
MEAN_MOTION_DOT = .324431E-2
MEAN_MOTION_DDOT = 0

CCSDS_OMM_VERS = 2.0
CREATION_DATE  = 
ORIGINATOR     = 

OBJECT_NAME    = STARLINK-36323
OBJECT_ID      = 2026-054AD
CENTER_NAME    = EARTH
REF_FRAME      = TEME
TIME_SYSTEM    = UTC
MEAN_ELEMENT_THEORY = SGP/SGP4

EPOCH          = 2026-04-05T12:00:02.998944
MEAN_MOTION    = 15.75194349
ECCENTRICITY   = .0001197
INCLINATION    = 53.1588
RA_OF_ASC_NODE = 178.1310
ARG_OF_PERICENTER = 75.4078
MEAN_ANOMALY   = 29.4416

EPHEMERIS_TYPE = 0
CLASSIFICATION_TYPE = U
NORAD_CAT_ID   = 68259
ELEMENT_SET_NO = 999
REV_AT_EPOCH   = 426
BSTAR          = .48135E-3
MEAN_MOTION_DOT = .73646E-3
MEAN_MOTION_DDOT = 0

CCSDS_OMM_VERS = 2.0
CREATION_DATE  = 
ORIGINATOR     = 

OBJECT_NAME    = STARLINK-37056
OBJECT_ID      = 2026-054AE
CENTER_NAME    = EARTH
REF_FRAME      = TEME
TIME_SYSTEM    = UTC
MEAN_ELEMENT_THEORY = SGP/SGP4

EPOCH          = 2026-04-05T11:25:43.931424
MEAN_MOTION    = 15.81030420
ECCENTRICITY   = .0001418
INCLINATION    = 53.1582
RA_OF_ASC_NODE = 178.1853
ARG_OF_PERICENTER = 72.6748
MEAN_ANOMALY   = 287.4429

EPHEMERIS_TYPE = 0
CLASSIFICATION_TYPE = U
NORAD_CAT_ID   = 68260
ELEMENT_SET_NO = 999
REV_AT_EPOCH   = 301
BSTAR          = .14103E-2
MEAN_MOTION_DOT = .289264E-2
MEAN_MOTION_DDOT = 0

CCSDS_OMM_VERS = 2.0
CREATION_DATE  = 
ORIGINATOR     = 

OBJECT_NAME    = TEN-KOH 2
OBJECT_ID      = 2025-241B
CENTER_NAME    = EARTH
REF_FRAME      = TEME
TIME_SYSTEM    = UTC
MEAN_ELEMENT_THEORY = SGP/SGP4

EPOCH          = 2026-04-05T00:04:56.122176
MEAN_MOTION    = 15.22922678
ECCENTRICITY   = .00046441
INCLINATION    = 51.6396
RA_OF_ASC_NODE = 307.7582
ARG_OF_PERICENTER = 254.3593
MEAN_ANOMALY   = 105.6872

EPHEMERIS_TYPE = 0
CLASSIFICATION_TYPE = U
NORAD_CAT_ID   = 68261
ELEMENT_SET_NO = 999
REV_AT_EPOCH   = 375
BSTAR          = .4597127E-3
MEAN_MOTION_DOT = .10618E-3
MEAN_MOTION_DDOT = 0

CCSDS_OMM_VERS = 2.0
CREATION_DATE  = 
ORIGINATOR     = 

OBJECT_NAME    = STARLINK-37162
OBJECT_ID      = 2026-055A
CENTER_NAME    = EARTH
REF_FRAME      = TEME
TIME_SYSTEM    = UTC
MEAN_ELEMENT_THEORY = SGP/SGP4

EPOCH          = 2026-04-05T12:00:02.998944
MEAN_MOTION    = 15.80893866
ECCENTRICITY   = .0000832
INCLINATION    = 53.1589
RA_OF_ASC_NODE = 202.9355
ARG_OF_PERICENTER = 131.3866
MEAN_ANOMALY   = 167.2078

EPHEMERIS_TYPE = 0
CLASSIFICATION_TYPE = U
NORAD_CAT_ID   = 68262
ELEMENT_SET_NO = 999
REV_AT_EPOCH   = 394
BSTAR          = -.10501E-3
MEAN_MOTION_DOT = -.21392E-3
MEAN_MOTION_DDOT = 0

CCSDS_OMM_VERS = 2.0
CREATION_DATE  = 
ORIGINATOR     = 

OBJECT_NAME    = STARLINK-37156
OBJECT_ID      = 2026-055B
CENTER_NAME    = EARTH
REF_FRAME      = TEME
TIME_SYSTEM    = UTC
MEAN_ELEMENT_THEORY = SGP/SGP4

EPOCH          = 2026-04-05T12:00:02.998944
MEAN_MOTION    = 15.80907164
ECCENTRICITY   = .0001598
INCLINATION    = 53.1587
RA_OF_ASC_NODE = 202.9267
ARG_OF_PERICENTER = 116.3576
MEAN_ANOMALY   = 186.5064

EPHEMERIS_TYPE = 0
CLASSIFICATION_TYPE = U
NORAD_CAT_ID   = 68263
ELEMENT_SET_NO = 999
REV_AT_EPOCH   = 394
BSTAR          = -.2733E-3
MEAN_MOTION_DOT = -.5439E-3
MEAN_MOTION_DDOT = 0

CCSDS_OMM_VERS = 2.0
CREATION_DATE  = 
ORIGINATOR     = 

OBJECT_NAME    = STARLINK-37163
OBJECT_ID      = 2026-055C
CENTER_NAME    = EARTH
REF_FRAME      = TEME
TIME_SYSTEM    = UTC
MEAN_ELEMENT_THEORY = SGP/SGP4

EPOCH          = 2026-04-05T12:00:02.998944
MEAN_MOTION    = 15.80890864
ECCENTRICITY   = .0000578
INCLINATION    = 53.1587
RA_OF_ASC_NODE = 202.9083
ARG_OF_PERICENTER = 135.0560
MEAN_ANOMALY   = 176.3569

EPHEMERIS_TYPE = 0
CLASSIFICATION_TYPE = U
NORAD_CAT_ID   = 68264
ELEMENT_SET_NO = 999
REV_AT_EPOCH   = 394
BSTAR          = -.13329E-3
MEAN_MOTION_DOT = -.26944E-3
MEAN_MOTION_DDOT = 0

CCSDS_OMM_VERS = 2.0
CREATION_DATE  = 
ORIGINATOR     = 

OBJECT_NAME    = STARLINK-37133
OBJECT_ID      = 2026-055D
CENTER_NAME    = EARTH
REF_FRAME      = TEME
TIME_SYSTEM    = UTC
MEAN_ELEMENT_THEORY = SGP/SGP4

EPOCH          = 2026-04-05T12:00:02.998944
MEAN_MOTION    = 15.80937579
ECCENTRICITY   = .0001087
INCLINATION    = 53.1587
RA_OF_ASC_NODE = 202.9172
ARG_OF_PERICENTER = 136.5555
MEAN_ANOMALY   = 170.5702

EPHEMERIS_TYPE = 0
CLASSIFICATION_TYPE = U
NORAD_CAT_ID   = 68265
ELEMENT_SET_NO = 999
REV_AT_EPOCH   = 394
BSTAR          = -.57787E-3
MEAN_MOTION_DOT = -.113603E-2
MEAN_MOTION_DDOT = 0

